CIC_OEM_VERS = 2.0
CREATION_DATE = 2025-03-12T09:17:15.898726
ORIGINATOR = ISAE-SUPAERO


META_START
OBJECT_NAME = PLEIADES1B
OBJECT_ID = PLEIADES1B
CENTER_NAME = Earth
REF_FRAME = EME2000
TIME_SYSTEM = UTC
START_TIME = 2025-03-12T04:25:49.846
USEABLE_START_TIME = 2025-03-12T04:25:49.846
USEABLE_STOP_TIME = 2025-03-12T23:54:49.846
STOP_TIME = 2025-03-12T23:54:49.846
INTERPOLATION = lagrange
INTERPOLATION_DEGREE = 5
META_STOP



60746 15949.846 -5984.4340999999995 3775.7374 14.659853 0.58522186 0.8967938400000001 7.4285448
60746 16369.846 -5160.9845000000005 3770.5533 3030.9993 3.266546 -0.91850018 6.694954399999999
60746 16789.846 -3329.9919 3029.2203 5453.8093 5.3069489999999995 -2.5524404 4.6509199
60746 17209.846 -849.3656500000001 1696.9837 6810.1956 6.3095721000000005 -3.6861655 1.7013656000000001
60746 17629.846 1796.7868 34.099948 6836.3575 6.0823805 -4.1011614 -1.5790224000000002
60746 18049.846 4092.6052999999997 -1635.3425 5526.6863 4.6684776 -3.7166653000000003 -4.5546082
60746 18469.846 5588.8162 -2985.3934 3133.7177 2.3385152 -2.6047902 -6.6454045
60746 18889.846 5991.3640000000005 -3751.0588 126.96719 -0.45391476000000003 -0.98033018 -7.433684400000001
60746 19309.846 5220.1488 -3781.8611 -2904.7802 -3.1569006 0.8357423900000001 -6.7624040999999995
60746 19729.846 3424.2092000000002 -3070.1745 -5364.1962 -5.243021 2.488341 -4.7671899
60746 20149.846 959.68846 -1759.2437 -6774.715 -6.297656600000001 3.6498353000000003 -1.8408421000000001
60746 20569.846 -1692.3933000000002 -104.85147 -6859.8238 -6.1217996999999995 4.0974421 1.4418009
60746 20989.846 -4014.3132 1569.9661 -5603.2762 -4.7514571 3.7455739 4.4424988
60746 21409.846 -5552.581 2938.2644 -3250.2192000000005 -2.4516062 2.6617734 6.57643
60746 21829.846 -6005.849700000001 3732.4009 -260.46453 0.32919468 1.0568975 7.4232928000000005
60746 22249.846 -5285.3688 3797.0923 2780.3082999999997 3.0437266 -0.75323861 6.8161664
60746 22669.846 -3532.9026000000003 3120.4765 5277.3693 5.1602584 -2.4134185 4.8780022
60746 23089.846 -1092.5472 1836.2778 6744.228700000001 6.2679238999999995 -3.6003116 1.9919940999999999
60746 23509.846 1560.3268 194.97057999999998 6896.277900000001 6.1559588000000005 -4.0862561 -1.2800911000000001
60746 23929.846 3909.5656000000004 -1484.1835 5703.5074 4.8452367 -3.7772585 -4.3066736
60746 24349.846 5496.0955 -2873.6622 3396.0629 2.5853324 -2.7302718 -6.4990178
60746 24769.846 6010.3708 -3702.4071000000004 425.07961 -0.1845446 -1.1469495 -7.4191069
60746 25189.846 5347.089 -3805.9016 -2630.0297 -2.9215869 0.66245946 -6.8863045000000005
60746 25609.846 3637.3662000000004 -3164.5832 -5169.162200000001 -5.0843904 2.3404072 -5.0040307
60746 26029.846 1216.695 -1904.7993000000001 -6695.7856 -6.2508284000000005 3.5584905 -2.1458721
60746 26449.846 -1441.4043000000001 -273.40342 -6912.9468 -6.1969198 4.081199300000001 1.1286802
60746 26869.846 -3818.3661 1411.26 -5778.5341 -4.934023900000001 3.8079213 4.18393
60746 27289.846 -5449.8366 2820.3581000000004 -3513.1622 -2.7049841000000003 2.7901572000000003 6.4243575
60746 27709.846 -6015.584900000001 3677.8966 -559.2228100000001 0.056150036 1.2252268 7.4076278
60746 28129.846 -5403.924599999999 3815.5675 2504.3519 2.8062141 -0.5792254400000001 6.9384876
60746 28549.846 -3729.2960000000003 3202.9139 5075.174599999999 5.0112477 -2.272078 5.1130081
60746 28969.846 -1326.1064 1964.0382 6648.9802 6.234116200000001 -3.5190936 2.2860468999999997
60746 29389.846 1335.7161 342.50133 6924.9396 6.2319356 -4.0748809 -0.99287304
60746 29809.846 3736.7702000000004 -1346.3168 5843.1314 5.01168 -3.8334647 -4.072627
60746 30229.846 5407.3836 -2771.9790000000003 3616.2652000000003 2.8113675 -2.8425589 -6.3548704
60746 30649.846 6020.8622000000005 -3655.7487 680.56953 0.061681561 -1.2960706 -7.3915509
60746 31069.846 5458.0346 -3825.3222 -2388.5486 -2.6961871 0.50120554 -6.9804534
60746 31489.846 3830.9368 -3249.0703 -4991.1471 -4.9220854 2.1963366 -5.2079141
60746 31909.846 1458.9301 -2041.0967 -6621.0426 -6.186209 3.4604681999999998 -2.4260289
60746 32329.846 -1196.2188 -437.04811 -6962.965 -6.248843300000001 4.0518997 0.8248530399999999
60746 32749.846 -3619.0658 1251.7135 -5950.093 -5.097473699999999 3.8569397 3.9199218
60746 33169.846 -5337.5086 2696.7527000000005 -3776.6211000000003 -2.9481586 2.9093111 6.2595984
60746 33589.846 -6013.0548 3614.7655 -864.01616 -0.21395792 1.3889179 7.380084200000001
60746 34009.846 -5510.2925000000005 3824.4335 2218.2817000000005 2.5687517 -0.40755111 7.0520082
60746 34429.846 -3926.3421000000003 3283.7045000000003 4864.203 4.8477854 -2.1242169 5.3369884
60746 34849.846 -1572.4903000000002 2099.1372 6554.1507 6.173814999999999 -3.4222357000000003 2.5763678
60746 35269.846 1090.8413 502.07513 6954.6071 6.2914586 -4.0514045 -0.69544639
60746 35689.846 3539.1085000000003 -1191.6731000000002 5994.0254 5.172002000000001 -3.8828085000000003 -3.8233178
60746 36109.846 5292.7298 -2651.4101 3854.6981 3.0400962 -2.9548173 -6.2049972
60746 36529.846 6008.365900000001 -3591.4976 955.5646 0.31016549 -1.4467558 -7.369903900000001
60746 36949.846 5544.5590999999995 -3826.5799 -2131.6172 -2.4814881 0.34572279 -7.0850862
60746 37369.846 3993.292 -3311.2072000000003 -4799.9918 -4.7814312 2.0668864 -5.4094289
60746 37789.846 1658.7394 -2146.5602000000003 -6525.749 -6.1427935 3.3804771000000002 -2.6800286
60746 38209.846 -998.5533 -563.9633 -6976.7871 -6.3012967 4.030605100000001 0.56667347
60746 38629.846 -3461.5128 1128.5009 -6065.8580999999995 -5.233108100000001 3.8954106000000004 3.6988971000000004
60746 39049.846 -5250.6485 2601.2706000000003 -3971.1753 -3.1452245 3.0015563000000003 6.110655700000001
60746 39469.846 -6016.7123 3567.1868 -1100.7885 -0.44168105 1.521479 7.3307914
60746 39889.846 -5609.2264000000005 3837.3121 1984.6763 2.3495523 -0.25619080000000005 7.118113999999999
60746 40309.846 -4107.8228 3359.1277000000005 4682.2933 4.6808804 -1.9827132 5.5144682000000005
60746 40729.846 -1806.0531 2226.4786 6465.357400000001 6.0982798 -3.3214067000000003 2.8356397
60746 41149.846 847.37808 660.30233 6986.2841 6.3279113 -4.0131807 -0.39667543
60746 41569.846 3335.4949 -1034.4449 6142.278 5.3234456 -3.9232323 -3.556925
60746 41989.846 5171.5168 -2527.0369 4093.9514 3.2747908000000003 -3.0657799 -6.0297876
60746 42409.846 5994.3083 -3524.3483 1242.4503 0.57695381 -1.6036126 -7.3223294
60746 42829.846 5639.9484 -3829.5415000000003 -1853.6463 -2.2359164999999996 0.17438518 -7.174242100000001
60746 43249.846 4178.7463 -3383.2273999999998 -4585.3395 -4.6052705 1.9148924999999999 -5.616545
60746 43669.846 1898.9201 -2274.3191 -6417.606400000001 -6.0673984 3.2758040999999998 -2.9634463
60746 44089.846 -751.10653 -721.8743000000001 -6994.659900000001 -6.3427131 3.9940858 0.25984544
60746 44509.846 -3255.0788 971.11559 -6207.0877 -5.383894100000001 3.9344740000000002 3.4280609
60746 44929.846 -5125.8378 2475.1761 -4209.0266 -3.3767459 3.1090848 5.9292004
60746 45349.846 -5998.3768 3497.1855 -1389.2625 -0.7086555499999999 1.6765962 7.275406200000001
60746 45769.846 -5701.109 3837.1330000000003 1701.9183 2.1003379 -0.084303051 7.200258700000001
60746 46189.846 -4291.7931 3428.6508 4460.4232999999995 4.4989658 -1.8282997 5.7172410000000005
60746 46609.846 -2045.791 2351.76 6347.1814 6.0189262 -3.2146608999999997 3.1183001
60746 47029.846 598.81953 816.62881 6994.027900000001 6.3658297 -3.9744489 -0.08965237399999999
60746 47449.846 3126.504 -877.6335200000001 6273.6275000000005 5.4708076000000005 -3.9596563000000002 -3.2849973
60746 47869.846 5044.7479 -2400.7426 4327.566900000001 3.5014696 -3.1685448000000003 -5.8411641
60746 48289.846 5974.1900000000005 -3453.1101000000003 1532.0307 0.84568284 -1.7572756999999999 -7.2553899
60746 48709.846 5732.0873 -3828.3945 -1565.2817 -1.9793862 -9.3468e-06 -7.2473627
60746 49129.846 4366.8764 -3453.6266 -4355.4442 -4.4135995 1.7552288 -5.8162276
60746 49549.846 2141.5978999999998 -2398.6771000000003 -6285.6621 -5.9884465 3.1688185 -3.2492010000000002
60746 49969.846 -500.96163 -876.1838 -6986.996 -6.3850763 3.9591994 -0.039933132999999996
60746 50389.846 -3045.2538 817.57898 -6317.869900000001 -5.5314128 3.9734998 3.1723635
60746 50809.846 -4994.1342 2351.6297999999997 -4409.4648 -3.5942244000000003 3.2098093 5.7640712999999995
60746 51229.846 -5964.9688 3425.1144 -1635.323 -0.95182074 1.8168991 7.2255783000000005
60746 51649.846 -5767.6957 3827.8655 1460.0505 1.8748082 0.069495807 7.268151700000001
60746 52069.846 -4443.0559 3482.4017000000003 4269.386 4.3278641 -1.6867825 5.888229000000001
60746 52489.846 -2252.2200000000003 2458.1196 6244.9816 5.9308758 -3.109033 3.3648804
60746 52909.846 376.22947 956.2832800000001 7004.5326 6.3789508999999995 -3.9243774 0.19296842
60746 53329.846 2931.708 -731.05697 6401.8192 5.5891088 -3.9780373 -3.0162082999999997
60746 53749.846 4917.639700000001 -2276.26 4552.6973 3.7103636000000004 -3.2580497999999998 -5.6446114
60746 54169.846 5945.4325 -3377.9139 1814.3936 1.1008058 -1.8996947 -7.1777967
60746 54589.846 5811.0343 -3819.1776 -1278.9519 -1.7312178 -0.16596760000000002 -7.3069025000000005
60746 55009.846 4538.6305 -3512.5006000000003 -4121.1258 -4.2270465 1.6021081 -6.0011186
60746 55429.846 2377.2022 -2517.8027 -6154.0696 -5.8937967 3.0554623000000003 -3.5181677000000002
60746 55849.846 -249.51412 -1030.3059 -6979.5010999999995 -6.4061447 3.9098112 -0.34759945
60746 56269.846 -2826.7747999999997 658.25648 -6436.6792000000005 -5.6653617999999994 3.9993154 2.8908823000000003
60746 56689.846 -4851.467000000001 2218.3914 -4631.036700000001 -3.8152071000000003 3.3061472 5.5646477999999995
60746 57109.846 -5925.96 3344.0282 -1916.1021 -1.2161158 1.964693 7.147798600000001
60746 57529.846 -5839.63 3814.6004 1175.2540000000001 1.6196874 0.23920514 7.3270494
60746 57949.846 -4611.169400000001 3539.0725 4036.2149 4.1320705 -1.5286153999999998 6.0712726
60746 58369.846 -2483.1776 2573.2834 6108.5928 5.8318782 -2.9929826 3.635017
